NORAD_CAT_ID,OBJECT_NAME,OBJECT_TYPE,EPOCH,MEAN_MOTION,ECCENTRICITY,INCLINATION,RA_OF_ASC_NODE,ARG_OF_PERICENTER,MEAN_ANOMALY,BSTAR,MEAN_MOTION_DOT,MEAN_MOTION_DDOT,TLE_LINE0,TLE_LINE1,TLE_LINE2,SEMIMAJOR_AXIS,PERIOD,APOGEE,PERIGEE,DECAYED
49166.0,STARLINK-3089,PAYLOAD,2024-08-21 10:52:09,14.983321,0.000308,69.9981,259.6193,270.4698,89.6108,0.00011198,1.243e-05,0.0,0 STARLINK-3089,1 49166U 21082AN  24234.45288624  .00001243  00000-0  11198-3 0  9996,2 49166  69.9981 259.6193 0003080 270.4698  89.6108 14.98332100163005,6950.186,96.107,574.192,569.911,0.0
